start=new Date('2022-12-31T00:00:00.000Z').valueOf();
sats=[{"COUNTRY_CODE":"US","TLE_LINE1":"1 51751U 22016AP  22364.54905976  .00002116  00000-0  15109-3 0  9991","SITE":"AFETR","TLE_LINE2":"2 51751  53.2156 139.6489 0002610  38.5483 321.5695 15.08827794 48917","INCLINATION":"53.2156","EPOCH":"2022-12-30T13:10:38.763264","RCS_SIZE":"LARGE","CLASSIFICATION_TYPE":"U","TIME_SYSTEM":"UTC","MEAN_MOTION":"15.08827794","ELEMENT_SET_NO":"999","MEAN_ANOMALY":"321.5695","REV_AT_EPOCH":"4891","GP_ID":"221763085","OBJECT_ID":"2022-016AP","MEAN_ELEMENT_THEORY":"SGP4","ECCENTRICITY":"0.00026100","SEMIMAJOR_AXIS":"6917.918","RA_OF_ASC_NODE":"139.6489","BSTAR":"0.00015109000000","OBJECT_NAME":"STARLINK-3506","ARG_OF_PERICENTER":"38.5483","PERIAPSIS":"537.977","FILE":"3726758","DECAY_DATE":null,"EPHEMERIS_TYPE":"0","MEAN_MOTION_DOT":"0.00002116","OBJECT_TYPE":"PAYLOAD","CENTER_NAME":"EARTH","LAUNCH_DATE":"2022-02-21","NORAD_CAT_ID":"51751","PERIOD":"95.438","MEAN_MOTION_DDOT":"0.0000000000000","REF_FRAME":"TEME","APOAPSIS":"541.588"},{"INCLINATION":"53.2167","TLE_LINE2":"2 51752  53.2167 138.5268 0003155  36.9334 323.1875 15.08835749 48956","TLE_LINE1":"1 51752U 22016AQ  22364.79928522  .00003048  00000-0  20957-3 0  9993","SITE":"AFETR","COUNTRY_CODE":"US","MEAN_MOTION":"15.08835749","TIME_SYSTEM":"UTC","CLASSIFICATION_TYPE":"U","RCS_SIZE":"LARGE","EPOCH":"2022-12-30T19:10:58.243008","REV_AT_EPOCH":"4895","MEAN_ANOMALY":"323.1875","ELEMENT_SET_NO":"999","SEMIMAJOR_AXIS":"6917.893","ECCENTRICITY":"0.00031550","MEAN_ELEMENT_THEORY":"SGP4","OBJECT_ID":"2022-016AQ","GP_ID":"221797088","DECAY_DATE":null,"FILE":"3727167","ARG_OF_PERICENTER":"36.9334","PERIAPSIS":"537.576","OBJECT_NAME":"STARLINK-3511","BSTAR":"0.00020957000000","RA_OF_ASC_NODE":"138.5268","CENTER_NAME":"EARTH","OBJECT_TYPE":"PAYLOAD","MEAN_MOTION_DOT":"0.00003048","EPHEMERIS_TYPE":"0","NORAD_CAT_ID":"51752","LAUNCH_DATE":"2022-02-21","APOAPSIS":"541.941","REF_FRAME":"TEME","MEAN_MOTION_DDOT":"0.0000000000000","PERIOD":"95.438"},{"REF_FRAME":"TEME","APOAPSIS":"542.132","PERIOD":"95.436","MEAN_MOTION_DDOT":"0.0000000000000","NORAD_CAT_ID":"51753","LAUNCH_DATE":"2022-02-21","OBJECT_TYPE":"PAYLOAD","MEAN_MOTION_DOT":"0.00005489","CENTER_NAME":"EARTH","EPHEMERIS_TYPE":"0","FILE":"3727162","PERIAPSIS":"537.220","ARG_OF_PERICENTER":"42.1789","DECAY_DATE":null,"RA_OF_ASC_NODE":"138.7884","OBJECT_NAME":"STARLINK-3507","BSTAR":"0.00036247000000","MEAN_ELEMENT_THEORY":"SGP4","SEMIMAJOR_AXIS":"6917.811","ECCENTRICITY":"0.00035500","OBJECT_ID":"2022-016AR","GP_ID":"221797011","REV_AT_EPOCH":"4889","MEAN_ANOMALY":"317.9475","ELEMENT_SET_NO":"999","TIME_SYSTEM":"UTC","MEAN_MOTION":"15.08862726","RCS_SIZE":"LARGE","EPOCH":"2022-12-30T17:46:11.663328","CLASSIFICATION_TYPE":"U","INCLINATION":"53.2147","TLE_LINE2":"2 51753  53.2147 138.7884 0003550  42.1789 317.9475 15.08862726 48898","COUNTRY_CODE":"US","SITE":"AFETR","TLE_LINE1":"1 51753U 22016AR  22364.74041277  .00005489  00000-0  36247-3 0  9992"},{"MEAN_MOTION":"15.08843525","TIME_SYSTEM":"UTC","CLASSIFICATION_TYPE":"U","RCS_SIZE":"LARGE","EPOCH":"2022-12-30T12:40:12.475488","INCLINATION":"53.2169","TLE_LINE2":"2 51754  53.2169 139.7404 0003409  53.8501 306.2806 15.08843525 48914","TLE_LINE1":"1 51754U 22016AS  22364.52792217  .00001018  00000-0  82103-4 0  9993","SITE":"AFETR","COUNTRY_CODE":"US","SEMIMAJOR_AXIS":"6917.870","ECCENTRICITY":"0.00034090","MEAN_ELEMENT_THEORY":"SGP4","OBJECT_ID":"2022-016AS","GP_ID":"221763095","REV_AT_EPOCH":"4891","MEAN_ANOMALY":"306.2806","ELEMENT_SET_NO":"999","CENTER_NAME":"EARTH","OBJECT_TYPE":"PAYLOAD","MEAN_MOTION_DOT":"0.00001018","EPHEMERIS_TYPE":"0","DECAY_DATE":null,"FILE":"3726758","ARG_OF_PERICENTER":"53.8501","PERIAPSIS":"537.376","OBJECT_NAME":"STARLINK-3457","BSTAR":"0.00008210300000","RA_OF_ASC_NODE":"139.7404","APOAPSIS":"542.093","REF_FRAME":"TEME","MEAN_MOTION_DDOT":"0.0000000000000","PERIOD":"95.437","NORAD_CAT_ID":"51754","LAUNCH_DATE":"2022-02-21"},{"NORAD_CAT_ID":"51755","LAUNCH_DATE":"2022-02-21","REF_FRAME":"TEME","APOAPSIS":"541.861","PERIOD":"95.438","MEAN_MOTION_DDOT":"0.0000000000000","FILE":"3726758","PERIAPSIS":"537.655","ARG_OF_PERICENTER":"44.2022","DECAY_DATE":null,"RA_OF_ASC_NODE":"139.7274","OBJECT_NAME":"STARLINK-3460","BSTAR":"0.00015394000000","OBJECT_TYPE":"PAYLOAD","MEAN_MOTION_DOT":"0.00002162","CENTER_NAME":"EARTH","EPHEMERIS_TYPE":"0","MEAN_ANOMALY":"315.9212","REV_AT_EPOCH":"4891","ELEMENT_SET_NO":"999","MEAN_ELEMENT_THEORY":"SGP4","SEMIMAJOR_AXIS":"6917.893","ECCENTRICITY":"0.00030400","OBJECT_ID":"2022-016AT","GP_ID":"221763399","INCLINATION":"53.2151","TLE_LINE2":"2 51755  53.2151 139.7274 0003040  44.2022 315.9212 15.08835741 48913","COUNTRY_CODE":"US","SITE":"AFETR","TLE_LINE1":"1 51755U 22016AT  22364.53065322  .00002162  00000-0  15394-3 0  9993","TIME_SYSTEM":"UTC","MEAN_MOTION":"15.08835741","RCS_SIZE":"LARGE","EPOCH":"2022-12-30T12:44:08.438208","CLASSIFICATION_TYPE":"U"},{"REF_FRAME":"TEME","APOAPSIS":"541.772","PERIOD":"95.437","MEAN_MOTION_DDOT":"0.0000000000000","NORAD_CAT_ID":"51756","LAUNCH_DATE":"2022-02-21","MEAN_MOTION_DOT":"0.00003012","OBJECT_TYPE":"PAYLOAD","CENTER_NAME":"EARTH","EPHEMERIS_TYPE":"0","ARG_OF_PERICENTER":"42.3475","PERIAPSIS":"537.670","FILE":"3727162","DECAY_DATE":null,"RA_OF_ASC_NODE":"138.6762","BSTAR":"0.00020726000000","OBJECT_NAME":"STARLINK-3513","MEAN_ELEMENT_THEORY":"SGP4","ECCENTRICITY":"0.00029650","SEMIMAJOR_AXIS":"6917.856","GP_ID":"221797020","OBJECT_ID":"2022-016AU","MEAN_ANOMALY":"317.7745","REV_AT_EPOCH":"4891","ELEMENT_SET_NO":"999","TIME_SYSTEM":"UTC","MEAN_MOTION":"15.08847952","EPOCH":"2022-12-30T18:23:16.627488","RCS_SIZE":"LARGE","CLASSIFICATION_TYPE":"U","TLE_LINE2":"2 51756  53.2159 138.6762 0002965  42.3475 317.7745 15.08847952 48916","INCLINATION":"53.2159","COUNTRY_CODE":"US","TLE_LINE1":"1 51756U 22016AU  22364.76616467  .00003012  00000-0  20726-3 0  9991","SITE":"AFETR"},{"LAUNCH_DATE":"2022-02-21","NORAD_CAT_ID":"51757","PERIOD":"95.437","MEAN_MOTION_DDOT":"0.0000000000000","REF_FRAME":"TEME","APOAPSIS":"541.490","RA_OF_ASC_NODE":"139.5908","OBJECT_NAME":"STARLINK-3459","BSTAR":"0.00011072000000","FILE":"3726758","ARG_OF_PERICENTER":"56.1459","PERIAPSIS":"537.979","DECAY_DATE":null,"EPHEMERIS_TYPE":"0","OBJECT_TYPE":"PAYLOAD","MEAN_MOTION_DOT":"0.00001474","CENTER_NAME":"EARTH","ELEMENT_SET_NO":"999","MEAN_ANOMALY":"303.9775","REV_AT_EPOCH":"4892","OBJECT_ID":"2022-016AV","GP_ID":"221763097","MEAN_ELEMENT_THEORY":"SGP4","SEMIMAJOR_AXIS":"6917.870","ECCENTRICITY":"0.00025380","COUNTRY_CODE":"US","SITE":"AFETR","TLE_LINE1":"1 51757U 22016AV  22364.56376177  .00001474  00000-0  11072-3 0  9995","INCLINATION":"53.2178","TLE_LINE2":"2 51757  53.2178 139.5908 0002538  56.1459 303.9775 15.08843542 48923","RCS_SIZE":"LARGE","EPOCH":"2022-12-30T13:31:49.016928","CLASSIFICATION_TYPE":"U","TIME_SYSTEM":"UTC","MEAN_MOTION":"15.08843542"},{"REF_FRAME":"TEME","APOAPSIS":"541.763","PERIOD":"95.437","MEAN_MOTION_DDOT":"0.0000000000000","NORAD_CAT_ID":"51758","LAUNCH_DATE":"2022-02-21","MEAN_MOTION_DOT":"0.00002117","OBJECT_TYPE":"PAYLOAD","CENTER_NAME":"EARTH","EPHEMERIS_TYPE":"0","ARG_OF_PERICENTER":"45.2776","PERIAPSIS":"537.679","FILE":"3726758","DECAY_DATE":null,"RA_OF_ASC_NODE":"139.5964","BSTAR":"0.00015106000000","OBJECT_NAME":"STARLINK-3458","MEAN_ELEMENT_THEORY":"SGP4","ECCENTRICITY":"0.00029520","SEMIMAJOR_AXIS":"6917.856","GP_ID":"221763401","OBJECT_ID":"2022-016AW","REV_AT_EPOCH":"4895","MEAN_ANOMALY":"314.8456","ELEMENT_SET_NO":"999","TIME_SYSTEM":"UTC","MEAN_MOTION":"15.08847927","EPOCH":"2022-12-30T13:27:53.839584","RCS_SIZE":"LARGE","CLASSIFICATION_TYPE":"U","TLE_LINE2":"2 51758  53.2167 139.5964 0002952  45.2776 314.8456 15.08847927 48956","INCLINATION":"53.2167","COUNTRY_CODE":"US","SITE":"AFETR","TLE_LINE1":"1 51758U 22016AW  22364.56103981  .00002117  00000-0  15106-3 0  9994"},{"NORAD_CAT_ID":"51759","LAUNCH_DATE":"2022-02-21","REF_FRAME":"TEME","APOAPSIS":"541.751","PERIOD":"95.437","MEAN_MOTION_DDOT":"0.0000000000000","PERIAPSIS":"537.669","ARG_OF_PERICENTER":"41.2251","FILE":"3727162","DECAY_DATE":null,"RA_OF_ASC_NODE":"138.7124","BSTAR":"0.00023366000000","OBJECT_NAME":"STARLINK-3456","MEAN_MOTION_DOT":"0.00003433","OBJECT_TYPE":"PAYLOAD","CENTER_NAME":"EARTH","EPHEMERIS_TYPE":"0","MEAN_ANOMALY":"318.8964","REV_AT_EPOCH":"4897","ELEMENT_SET_NO":"999","MEAN_ELEMENT_THEORY":"SGP4","ECCENTRICITY":"0.00029500","SEMIMAJOR_AXIS":"6917.845","GP_ID":"221796731","OBJECT_ID":"2022-016AX","TLE_LINE2":"2 51759  53.2171 138.7124 0002950  41.2251 318.8964 15.08851654 48975","INCLINATION":"53.2171","COUNTRY_CODE":"US","TLE_LINE1":"1 51759U 22016AX  22364.75880264  .00003433  00000-0  23366-3 0  9991","SITE":"AFETR","TIME_SYSTEM":"UTC","MEAN_MOTION":"15.08851654","EPOCH":"2022-12-30T18:12:40.548096","RCS_SIZE":"LARGE","CLASSIFICATION_TYPE":"U"},{"RA_OF_ASC_NODE":"168.5632","OBJECT_NAME":"STARLINK-3622","BSTAR":"0.00018922000000","FILE":"3727179","ARG_OF_PERICENTER":"46.1827","PERIAPSIS":"537.707","DECAY_DATE":null,"EPHEMERIS_TYPE":"0","OBJECT_TYPE":"PAYLOAD","MEAN_MOTION_DOT":"0.00002725","CENTER_NAME":"EARTH","LAUNCH_DATE":"2022-02-25","NORAD_CAT_ID":"51768","PERIOD":"95.437","MEAN_MOTION_DDOT":"0.0000000000000","REF_FRAME":"TEME","APOAPSIS":"541.732","COUNTRY_CODE":"US","SITE":"AFWTR","TLE_LINE1":"1 51768U 22017A   22364.78916980  .00002725  00000-0  18922-3 0  9995","INCLINATION":"53.2166","TLE_LINE2":"2 51768  53.2166 168.5632 0002909  46.1827 313.9405 15.08848415 48192","RCS_SIZE":"LARGE","EPOCH":"2022-12-30T18:56:24.270720","CLASSIFICATION_TYPE":"U","TIME_SYSTEM":"UTC","MEAN_MOTION":"15.08848415","ELEMENT_SET_NO":"999","REV_AT_EPOCH":"4819","MEAN_ANOMALY":"313.9405","OBJECT_ID":"2022-017A","GP_ID":"221796878","MEAN_ELEMENT_THEORY":"SGP4","SEMIMAJOR_AXIS":"6917.855","ECCENTRICITY":"0.00029090"}];
